H1 CPF 01  gfz 2021 01 17 13  5172 tandemx   
H2 1003001  6202 36605    2021 01 17 12 59 42 2021 01 22 00 00 42   120 1 1  0 0 0
H9
10 0 59232  76302.000000  0     -51573.581  -1255016.745   6761969.122
10 0 59232  76422.000000  0    -676439.843   -581616.645   6819384.407
10 0 59232  76542.000000  0   -1277534.906    112659.770   6756970.329
10 0 59232  76662.000000  0   -1844115.340    815188.313   6575814.922
10 0 59232  76782.000000  0   -2366258.506   1513016.931   6279079.805
10 0 59232  76902.000000  0   -2835036.966   2193103.616   5871948.479
10 0 59232  77022.000000  0   -3242672.834   2842560.327   5361541.788
10 0 59232  77142.000000  0   -3582670.464   3448899.228   4756799.726
10 0 59232  77262.000000  0   -3849924.395   4000275.977   4068330.501
10 0 59232  77382.000000  0   -4040799.839   4485726.285   3308228.676
10 0 59232  77502.000000  0   -4153184.014   4895390.161   2489864.066
10 0 59232  77622.000000  0   -4186506.038   5220717.366   1627644.150
10 0 59232  77742.000000  0   -4141725.369   5454649.259    736756.342
10 0 59232  77862.000000  0   -4021289.954   5591773.250   -167105.528
10 0 59232  77982.000000  0   -3829063.608   5628446.068  -1068026.999
10 0 59232  78102.000000  0   -3570223.280   5562879.901  -1950163.950
10 0 59232  78222.000000  0   -3251129.542   5395189.794  -2798029.741
10 0 59232  78342.000000  0   -2879174.418   5127403.456  -3596772.446
10 0 59232  78462.000000  0   -2462612.137   4763431.335  -4332437.052
10 0 59232  78582.000000  0   -2010376.082   4309000.327  -4992206.719
10 0 59232  78702.000000  0   -1531887.636   3771554.537  -5564618.753
10 0 59232  78822.000000  0   -1036861.250   3160125.669  -6039755.785
10 0 59232  78942.000000  0    -535108.571   2485173.693  -6409407.974
10 0 59232  79062.000000  0     -36346.419   1758403.115  -6667202.700
10 0 59232  79182.000000  0     449986.772    992559.452  -6808703.641
10 0 59232  79302.000000  0     914904.977    201208.229  -6831479.534
10 0 59232  79422.000000  0    1350036.962   -601501.051  -6735141.356
10 0 59232  79542.000000  0    1747772.828  -1401082.297  -6521346.639
10 0 59232  79662.000000  0    2101393.894  -2182966.939  -6193773.940
10 0 59232  79782.000000  0    2405185.169  -2932762.824  -5758067.056
10 0 59232  79902.000000  0    2654528.386  -3636516.488  -5221749.564
10 0 59232  80022.000000  0    2845974.344  -4280974.375  -4594104.904
10 0 59232  80142.000000  0    2977291.181  -4853833.611  -3886025.080
10 0 59232  80262.000000  0    3047489.358  -5343981.573  -3109832.938
10 0 59232  80382.000000  0    3056822.361  -5741720.798  -2279075.439
10 0 59232  80502.000000  0    3006762.263  -6038970.003  -1408290.412
10 0 59232  80622.000000  0    2899950.415  -6229437.675   -512751.660
10 0 59232  80742.000000  0    2740122.591  -6308762.421    391804.241
10 0 59232  80862.000000  0    2532011.044  -6274614.595   1289461.071
10 0 59232  80982.000000  0    2281226.466  -6126759.506   2164411.858
10 0 59232  81102.000000  0    1994121.338  -5867076.128   3001247.462
10 0 59232  81222.000000  0    1677639.333  -5499532.507   3785234.929
10 0 59232  81342.000000  0    1339154.247  -5030120.621   4502581.597
10 0 59232  81462.000000  0     986303.692  -4466751.751   5140680.043
10 0 59232  81582.000000  0     626820.399  -3819115.279   5688330.921
10 0 59232  81702.000000  0     268364.938  -3098501.407   6135936.933
10 0 59232  81822.000000  0     -81634.991  -2317595.813   6475664.377
10 0 59232  81942.000000  0    -416135.923  -1490251.637   6701573.342
10 0 59232  82062.000000  0    -728618.196   -631241.673   6809716.408
10 0 59232  82182.000000  0   -1013211.627    244006.941   6798204.390
10 0 59232  82302.000000  0   -1264805.179   1119690.135   6667237.185
10 0 59232  82422.000000  0   -1479138.347   1979911.683   6419100.199
10 0 59232  82542.000000  0   -1652873.556   2808971.206   6058127.163
10 0 59232  82662.000000  0   -1783648.524   3591651.489   5590628.789
10 0 59232  82782.000000  0   -1870107.093   4313500.010   5024788.383
10 0 59232  82902.000000  0   -1911909.062   4961101.433   4370525.425
10 0 59232  83022.000000  0   -1909717.902   5522334.625   3639326.164
10 0 59232  83142.000000  0   -1865166.745   5986608.506   2844044.456
10 0 59232  83262.000000  0   -1780803.778   6345070.726   1998675.392
10 0 59232  83382.000000  0   -1660016.997   6590785.421   1118105.797
10 0 59232  83502.000000  0   -1506939.708   6718874.005    217846.217
10 0 59232  83622.000000  0   -1326340.430   6726616.012   -686249.528
10 0 59232  83742.000000  0   -1123499.240   6613508.118  -1578273.603
10 0 59232  83862.000000  0    -904072.895   6381274.398  -2442555.327
10 0 59232  83982.000000  0    -673954.569   6033830.299  -3263942.311
10 0 59232  84102.000000  0    -439131.095   5577205.768  -4028067.824
10 0 59232  84222.000000  0    -205540.933   5019429.117  -4721601.753
10 0 59232  84342.000000  0      21063.663   4370373.612  -5332479.120
10 0 59232  84462.000000  0     235247.589   3641572.019  -5850103.112
10 0 59232  84582.000000  0     432013.636   2846002.209  -6265519.549
10 0 59232  84702.000000  0     606910.069   1997849.913  -6571560.016
10 0 59232  84822.000000  0     756124.148   1112254.779  -6762954.106
10 0 59232  84942.000000  0     876559.717    205042.261  -6836411.042
10 0 59232  85062.000000  0     965897.764   -707554.463  -6790670.108
10 0 59232  85182.000000  0    1022639.027  -1609178.763  -6626518.505
10 0 59232  85302.000000  0    1046128.480  -2483635.027  -6346778.196
10 0 59232  85422.000000  0    1036562.117  -3315172.231  -5956264.662
10 0 59232  85542.000000  0     994974.323  -4088765.727  -5461713.948
10 0 59232  85662.000000  0     923206.786  -4790388.688  -4871675.902
10 0 59232  85782.000000  0     823859.930  -5407269.408  -4196378.179
10 0 59232  85902.000000  0     700226.275  -5928131.716  -3447559.704
10 0 59232  86022.000000  0     556207.357  -6343411.321  -2638274.485
10 0 59232  86142.000000  0     396216.126  -6645443.733  -1782669.529
10 0 59232  86262.000000  0     225066.447  -6828619.117   -895738.373
10 0 59232  86382.000000  0      47852.019  -6889497.573      6944.948
10 0 59233    102.000000  0    -130182.186  -6826882.161    909504.885
10 0 59233    222.000000  0    -303772.546  -6641848.347   1796051.087
10 0 59233    342.000000  0    -467770.378  -6337727.781   2650967.745
10 0 59233    462.000000  0    -617272.652  -5920045.318   3459198.626
10 0 59233    582.000000  0    -747745.890  -5396409.907   4206518.789
10 0 59233    702.000000  0    -855141.701  -4776367.531   4879787.771
10 0 59233    822.000000  0    -935999.795  -4071217.546   5467181.513
10 0 59233    942.000000  0    -987536.527  -3293797.396   5958399.206
10 0 59233   1062.000000  0   -1007717.276  -2458238.502   6344839.910
10 0 59233   1182.000000  0    -995310.425  -1579702.878   6619745.217
10 0 59233   1302.000000  0    -949923.102   -674105.717   6778311.624
10 0 59233   1422.000000  0    -872018.820    242174.719   6817770.180
10 0 59233   1542.000000  0    -762915.221   1152593.346   6737431.878
10 0 59233   1662.000000  0    -624761.357   2040736.693   6538699.115
10 0 59233   1782.000000  0    -460495.748   2890618.440   6225042.598
10 0 59233   1902.000000  0    -273786.096   3686967.595   5801944.621
10 0 59233   2022.000000  0     -68951.881   4415505.681   5276808.332
10 0 59233   2142.000000  0     149129.658   5063207.209   4658834.514
10 0 59233   2262.000000  0     375132.505   5618541.258   3958865.601
10 0 59233   2382.000000  0     603402.638   6071682.855   3189198.065
10 0 59233   2502.000000  0     828088.986   6414699.880   2363372.619
10 0 59233   2622.000000  0    1043283.350   6641704.013   1495929.354
10 0 59233   2742.000000  0    1243162.004   6748957.396    602146.406
10 0 59233   2862.000000  0    1422128.063   6734937.773   -302236.901
10 0 59233   2982.000000  0    1574950.075   6600358.933  -1201305.538
10 0 59233   3102.000000  0    1696892.830   6348146.519  -2079256.621
10 0 59233   3222.000000  0    1783837.901   5983370.620  -2920684.101
10 0 59233   3342.000000  0    1832390.704   5513136.147  -3710854.485
10 0 59233   3462.000000  0    1839971.612   4946433.613  -4435967.260
10 0 59233   3582.000000  0    1804888.837   4293954.772  -5083393.777
10 0 59233   3702.000000  0    1726391.616   3567880.040  -5641890.525
10 0 59233   3822.000000  0    1604703.546   2781642.996  -6101785.729
10 0 59233   3942.000000  0    1441034.453   1949675.685  -6455135.819
10 0 59233   4062.000000  0    1237572.225   1087142.517  -6695850.436
10 0 59233   4182.000000  0     997454.883    209666.186  -6819787.934
10 0 59233   4302.000000  0     724722.212   -666951.115  -6824818.844
10 0 59233   4422.000000  0     424248.400  -1527006.216  -6710857.103
10 0 59233   4542.000000  0     101657.362  -2355167.892  -6479860.279
10 0 59233   4662.000000  0    -236778.943  -3136743.226  -6135801.663
10 0 59233   4782.000000  0    -584258.785  -3857935.775  -5684609.429
10 0 59233   4902.000000  0    -933581.993  -4506087.901  -5134074.242
10 0 59233   5022.000000  0   -1277293.756  -5069906.347  -4493726.863
10 0 59233   5142.000000  0   -1607838.835  -5539666.226  -3774684.226
10 0 59233   5262.000000  0   -1917722.705  -5907388.402  -2989465.518
10 0 59233   5382.000000  0   -2199676.156  -6166986.195  -2151780.932
10 0 59233   5502.000000  0   -2446819.913  -6314378.340  -1276295.544
10 0 59233   5622.000000  0   -2652825.155  -6347564.340   -378371.283
10 0 59233   5742.000000  0   -2812065.762  -6266658.243    526208.061
10 0 59233   5862.000000  0   -2919757.818  -6073879.465   1421521.893
10 0 59233   5982.000000  0   -2972082.844  -5773501.145   2291802.090
10 0 59233   6102.000000  0   -2966291.338  -5371756.502   3121719.733
10 0 59233   6222.000000  0   -2900783.717  -4876706.365   3896662.493
10 0 59233   6342.000000  0   -2775166.937  -4298071.621   4602996.916
99
